NORAD_CAT_ID,OBJECT_NAME,OBJECT_TYPE,EPOCH,MEAN_MOTION,ECCENTRICITY,INCLINATION,RA_OF_ASC_NODE,ARG_OF_PERICENTER,MEAN_ANOMALY,BSTAR,MEAN_MOTION_DOT,MEAN_MOTION_DDOT,TLE_LINE0,TLE_LINE1,TLE_LINE2,SEMIMAJOR_AXIS,PERIOD,APOGEE,PERIGEE,DECAYED
54811.0,STARLINK-5424,PAYLOAD,2023-04-09 11:45:50,15.08840833,0.0001402,53.2153,125.7562,97.5851,262.53,2.9741e-05,1.85e-06,0.0,0 STARLINK-5424,1 54811U 22175BF  23099.49016244  .00000185  00000-0  29741-4 0  9990,2 54811  53.2153 125.7562 0001402  97.5851 262.5300 15.08840833 19390,6917.878,95.438,540.713,538.773,0.0
54811.0,STARLINK-5424,PAYLOAD,2023-04-10 13:11:59,15.08845458,0.000149,53.2172,120.9988,106.3737,253.7419,8.0023e-05,9.86e-06,0.0,0 STARLINK-5424,1 54811U 22175BF  23100.54999963  .00000986  00000-0  80023-4 0  9996,2 54811  53.2172 120.9988 0001490 106.3737 253.7419 15.08845458 17398,6917.864,95.437,540.759,538.698,0.0
54811.0,STARLINK-5424,PAYLOAD,2023-04-10 17:58:09,15.08842543,0.0001441,53.2171,120.1044,87.139,272.9767,6.2083e-05,7e-06,0.0,0 STARLINK-5424,1 54811U 22175BF  23100.74872241  .00000700  00000-0  62083-4 0  9997,2 54811  53.2171 120.1044 0001441  87.1390 272.9767 15.08842543 19583,6917.873,95.437,540.734,538.741,0.0
54811.0,STARLINK-5424,PAYLOAD,2023-04-11 05:05:51,15.08837594,0.0001552,53.2176,118.026,112.7027,247.4129,9.0897e-05,1.159e-05,0.0,0 STARLINK-5424,1 54811U 22175BF  23101.21240554  .00001159  00000-0  90897-4 0  9999,2 54811  53.2176 118.0260 0001552 112.7027 247.4129 15.08837594 17496,6917.888,95.438,540.826,538.679,0.0
54811.0,STARLINK-5424,PAYLOAD,2023-04-11 11:27:24,15.08839941,0.0001519,53.2176,116.8367,111.6163,248.4991,0.00010243,1.343e-05,0.0,0 STARLINK-5424,1 54811U 22175BF  23101.47736437  .00001343  00000-0  10243-3 0  9998,2 54811  53.2176 116.8367 0001519 111.6163 248.4991 15.08839941 19692,6917.881,95.438,540.796,538.695,0.0
54811.0,STARLINK-5424,PAYLOAD,2023-04-11 17:48:57,15.08835843,0.0001416,53.2174,115.6456,105.8264,254.2884,5.7586e-05,6.29e-06,0.0,0 STARLINK-5424,1 54811U 22175BF  23101.74232851  .00000629  00000-0  57586-4 0  9997,2 54811  53.2174 115.6456 0001416 105.8264 254.2884 15.08835843 19737,6917.893,95.438,540.738,538.779,0.0
54811.0,STARLINK-5424,PAYLOAD,2023-04-12 08:07:25,15.08835252,0.000139,53.2173,112.9694,106.7333,253.3812,-7.0921e-06,-4.01e-06,0.0,0 STARLINK-5424,1 54811U 22175BF  23102.33849272 -.00000401  00000-0 -70921-5 0  9993,2 54811  53.2173 112.9694 0001390 106.7333 253.3812 15.08835252 19823,6917.895,95.438,540.721,538.798,0.0
54811.0,STARLINK-5424,PAYLOAD,2023-04-13 09:33:35,15.08843534,0.0001372,53.2175,108.2117,102.0785,258.0361,7.9314e-05,9.75e-06,0.0,0 STARLINK-5424,1 54811U 22175BF  23103.39832739  .00000975  00000-0  79314-4 0  9998,2 54811  53.2175 108.2117 0001372 102.0785 258.0361 15.08843534 19983,6917.87,95.437,540.684,538.785,0.0
54811.0,STARLINK-5424,PAYLOAD,2023-04-14 09:24:22,15.0884283,0.0001277,53.2165,103.7492,93.1259,266.9879,0.00013091,1.796e-05,0.0,0 STARLINK-5424,1 54811U 22175BF  23104.39192840  .00001796  00000-0  13091-3 0  9992,2 54811  53.2165 103.7492 0001277  93.1259 266.9879 15.08842830 20137,6917.872,95.437,540.62,538.853,0.0
54811.0,STARLINK-5424,PAYLOAD,2023-04-15 06:04:23,15.08843917,0.0001234,53.2161,99.8843,91.8545,268.2589,5.9477e-05,6.59e-06,0.0,0 STARLINK-5424,1 54811U 22175BF  23105.25304989  .00000659  00000-0  59477-4 0  9993,2 54811  53.2161  99.8843 0001234  91.8545 268.2589 15.08843917 18108,6917.868,95.437,540.587,538.88,0.0
54811.0,STARLINK-5424,PAYLOAD,2023-04-15 09:15:09,15.0884623,0.0001366,53.2158,99.2896,96.0033,264.1115,7.096e-05,8.42e-06,0.0,0 STARLINK-5424,1 54811U 22175BF  23105.38552781  .00000842  00000-0  70960-4 0  9996,2 54811  53.2158  99.2896 0001366  96.0033 264.1115 15.08846230 20284,6917.861,95.437,540.671,538.781,0.0
54811.0,STARLINK-5424,PAYLOAD,2023-04-15 17:12:05,15.08840589,0.0001269,53.2156,97.8031,88.3857,271.7281,0.00017931,2.567e-05,0.0,0 STARLINK-5424,1 54811U 22175BF  23105.71672901  .00002567  00000-0  17931-3 0  9994,2 54811  53.2156  97.8031 0001269  88.3857 271.7281 15.08840589 20332,6917.879,95.438,540.621,538.866,0.0
54811.0,STARLINK-5424,PAYLOAD,2023-04-16 09:05:56,15.08848247,0.0001415,53.2172,94.8281,95.0351,265.0803,9.0204e-05,1.148e-05,0.0,0 STARLINK-5424,1 54811U 22175BF  23106.37912434  .00001148  00000-0  90204-4 0  9994,2 54811  53.2172  94.8281 0001415  95.0351 265.0803 15.08848247 18276,6917.855,95.437,540.699,538.741,0.0
54811.0,STARLINK-5424,PAYLOAD,2023-04-17 05:45:57,15.08839762,0.000119,53.2169,90.9632,93.6283,266.4845,4.9827e-05,5.05e-06,0.0,0 STARLINK-5424,1 54811U 22175BF  23107.24025168  .00000505  00000-0  49827-4 0  9991,2 54811  53.2169  90.9632 0001190  93.6283 266.4845 15.08839762 18405,6917.881,95.438,540.569,538.923,0.0
54811.0,STARLINK-5424,PAYLOAD,2023-04-17 07:21:20,15.08841764,0.0001268,53.2177,90.6648,94.9613,265.1524,5.763e-05,6.29e-06,0.0,0 STARLINK-5424,1 54811U 22175BF  23107.30649042  .00000629  00000-0  57630-4 0  9999,2 54811  53.2177  90.6648 0001268  94.9613 265.1524 15.08841764 20571,6917.875,95.437,540.617,538.863,0.0
54811.0,STARLINK-5424,PAYLOAD,2023-04-17 15:18:16,15.0883926,0.0001231,53.2176,89.1792,93.7227,266.3906,2.4556e-05,1.03e-06,0.0,0 STARLINK-5424,1 54811U 22175BF  23107.63769299  .00000103  00000-0  24556-4 0  9990,2 54811  53.2176  89.1792 0001231  93.7227 266.3906 15.08839260 20622,6917.883,95.438,540.599,538.896,0.0
54811.0,STARLINK-5424,PAYLOAD,2023-04-18 08:47:31,15.08843178,0.0001237,53.2179,85.9095,103.1429,256.9701,2.3508e-05,8.6e-07,0.0,0 STARLINK-5424,1 54811U 22175BF  23108.36633280  .00000086  00000-0  23508-4 0  9997,2 54811  53.2179  85.9095 0001237 103.1429 256.9701 15.08843178 20734,6917.871,95.437,540.591,538.88,0.0
54811.0,STARLINK-5424,PAYLOAD,2023-04-19 07:02:28,15.09159855,0.000146,53.2185,81.7454,106.9462,253.169,0.0026891,0.00043149,0.0,0 STARLINK-5424,1 54811U 22175BF  23109.29338813  .00043149  00000-0  26891-2 0  9997,2 54811  53.2185  81.7454 0001460 106.9462 253.1690 15.09159855 18714,6916.903,95.417,539.778,537.758,0.0
54811.0,STARLINK-5424,PAYLOAD,2023-04-19 13:23:47,15.09288202,0.0001393,53.2186,80.5556,110.3796,249.7346,0.0035755,0.0005779,0.0,0 STARLINK-5424,1 54811U 22175BF  23109.55818860  .00057790  00000-0  35755-2 0  9997,2 54811  53.2186  80.5556 0001393 110.3796 249.7346 15.09288202 18751,6916.511,95.409,539.339,537.412,0.0
54811.0,STARLINK-5424,PAYLOAD,2023-04-19 19:45:12,15.09314,0.0001416,53.2179,79.3657,80.9858,279.1295,0.0036245,0.00058635,0.0,0 STARLINK-5424,1 54811U 22175BF  23109.82306579  .00058635  00000-0  36245-2 0  9990,2 54811  53.2179  79.3657 0001416  80.9858 279.1295 15.09314000 20959,6916.432,95.408,539.276,537.318,0.0
54811.0,STARLINK-5424,PAYLOAD,2023-04-20 08:28:01,15.09369311,0.0001548,53.2175,76.9836,90.4585,269.6585,0.0035016,0.00056707,0.0,0 STARLINK-5424,1 54811U 22175BF  23110.35279895  .00056707  00000-0  35016-2 0  9993,2 54811  53.2175  76.9836 0001548  90.4585 269.6585 15.09369311 21037,6916.263,95.404,539.199,537.057,0.0
54811.0,STARLINK-5424,PAYLOAD,2023-04-20 14:49:28,15.09359142,0.0002128,53.218,75.7945,84.388,275.7355,0.0031385,0.00050741,0.0,0 STARLINK-5424,1 54811U 22175BF  23110.61769034  .00050741  00000-0  31385-2 0  9998,2 54811  53.2180  75.7945 0002128  84.3880 275.7355 15.09359142 21074,6916.294,95.405,539.631,536.687,0.0
54811.0,STARLINK-5424,PAYLOAD,2023-04-21 13:04:56,15.09085451,0.0001553,53.2178,71.6321,111.4358,248.68,-0.0020197,-0.00032503,0.0,0 STARLINK-5424,1 54811U 22175BF  23111.54510066 -.00032503  00000-0 -20197-2 0  9997,2 54811  53.2178  71.6321 0001553 111.4358 248.6800 15.09085451 19055,6917.13,95.422,540.069,537.921,0.0
54811.0,STARLINK-5424,PAYLOAD,2023-04-21 14:40:17,15.09104674,0.0001297,53.2177,71.3335,100.6984,259.4155,-0.0023594,-0.00037913,0.0,0 STARLINK-5424,1 54811U 22175BF  23111.61131862 -.00037913  00000-0 -23594-2 0  9992,2 54811  53.2177  71.3335 0001297 100.6984 259.4155 15.09104674 21220,6917.072,95.421,539.834,538.039,0.0
54811.0,STARLINK-5424,PAYLOAD,2023-04-22 04:58:34,15.09121821,0.0001771,53.2169,68.657,91.3635,268.7561,-0.0033,-0.00052828,0.0,0 STARLINK-5424,1 54811U 22175BF  23112.20734766 -.00052828  00000-0 -33000-2 0  9995,2 54811  53.2169  68.6570 0001771  91.3635 268.7561 15.09121821 21314,6917.019,95.42,540.109,537.659,0.0
54811.0,STARLINK-5424,PAYLOAD,2023-04-23 08:00:03,15.08883008,0.0001195,53.2182,63.6029,86.8063,273.3065,-0.00059956,-9.828e-05,0.0,0 STARLINK-5424,1 54811U 22175BF  23113.33337066 -.00009828  00000-0 -59956-3 0  9993,2 54811  53.2182  63.6029 0001195  86.8063 273.3065 15.08883008 19327,6917.749,95.435,540.441,538.787,0.0
54811.0,STARLINK-5424,PAYLOAD,2023-04-24 06:15:26,15.08855938,0.0001269,53.2184,59.4382,96.899,263.2146,0.00016134,2.282e-05,0.0,0 STARLINK-5424,1 54811U 22175BF  23114.26072792  .00002282  00000-0  16134-3 0  9994,2 54811  53.2184  59.4382 0001269  96.8990 263.2146 15.08855938 19460,6917.832,95.437,540.575,538.819,0.0
54811.0,STARLINK-5424,PAYLOAD,2023-04-25 06:06:13,15.08860225,0.0001348,53.2178,54.9779,109.3765,250.7373,0.00023849,3.512e-05,0.0,0 STARLINK-5424,1 54811U 22175BF  23115.25432299  .00003512  00000-0  23849-3 0  9994,2 54811  53.2178  54.9779 0001348 109.3765 250.7373 15.08860225 21776,6917.819,95.436,540.616,538.751,0.0
54811.0,STARLINK-5424,PAYLOAD,2023-04-26 05:57:03,15.08822983,0.0001237,53.2192,50.5177,96.1002,264.0131,-0.00029828,-5.03e-05,0.0,0 STARLINK-5424,1 54811U 22175BF  23116.24796230 -.00005030  00000-0 -29828-3 0  9994,2 54811  53.2192  50.5177 0001237  96.1002 264.0131 15.08822983 21926,6917.932,95.439,540.653,538.942,0.0
54811.0,STARLINK-5424,PAYLOAD,2023-04-27 04:12:27,15.08826742,0.0001257,53.2201,46.3563,108.5066,251.6063,-9.2145e-05,-1.753e-05,0.0,0 STARLINK-5424,1 54811U 22175BF  23117.17532347 -.00001753  00000-0 -92145-4 0  9995,2 54811  53.2201  46.3563 0001257 108.5066 251.6063 15.08826742 19907,6917.921,95.438,540.655,538.916,0.0
